[{"OBJECT_NAME":"ONEWEB-0380","OBJECT_ID":"2021-090AD","EPOCH":"2025-10-07T06:14:48.934176","MEAN_MOTION":13.19726869,"ECCENTRICITY":0.00019916,"INCLINATION":87.9275,"RA_OF_ASC_NODE":355.2855,"ARG_OF_PERICENTER":94.8684,"MEAN_ANOMALY":265.2676,"EPHEMERIS_TYPE":0,"CLASSIFICATION_TYPE":"U","NORAD_CAT_ID":49306,"ELEMENT_SET_NO":999,"REV_AT_EPOCH":19306,"BSTAR":-0.00039076806,"MEAN_MOTION_DOT":-1.44e-6,"MEAN_MOTION_DDOT":0},{"OBJECT_NAME":"ONEWEB-0381","OBJECT_ID":"2021-090AE","EPOCH":"2025-10-07T03:08:08.041632","MEAN_MOTION":13.20771865,"ECCENTRICITY":0.00019337,"INCLINATION":87.9228,"RA_OF_ASC_NODE":324.9054,"ARG_OF_PERICENTER":87.6767,"MEAN_ANOMALY":272.4588,"EPHEMERIS_TYPE":0,"CLASSIFICATION_TYPE":"U","NORAD_CAT_ID":49307,"ELEMENT_SET_NO":999,"REV_AT_EPOCH":19642,"BSTAR":-0.00016985772,"MEAN_MOTION_DOT":-5.6e-7,"MEAN_MOTION_DDOT":0},{"OBJECT_NAME":"ONEWEB-0382","OBJECT_ID":"2021-090AF","EPOCH":"2025-10-07T02:49:55.255296","MEAN_MOTION":13.20774098,"ECCENTRICITY":0.00017701,"INCLINATION":87.9233,"RA_OF_ASC_NODE":324.8994,"ARG_OF_PERICENTER":87.5646,"MEAN_ANOMALY":272.569,"EPHEMERIS_TYPE":0,"CLASSIFICATION_TYPE":"U","NORAD_CAT_ID":49308,"ELEMENT_SET_NO":999,"REV_AT_EPOCH":19641,"BSTAR":3.9314835e-5,"MEAN_MOTION_DOT":2.9e-7,"MEAN_MOTION_DDOT":0},{"OBJECT_NAME":"ONEWEB-0383","OBJECT_ID":"2021-090AG","EPOCH":"2025-10-07T04:02:14.825760","MEAN_MOTION":13.14502307,"ECCENTRICITY":0.00016591,"INCLINATION":87.9056,"RA_OF_ASC_NODE":340.0816,"ARG_OF_PERICENTER":101.0997,"MEAN_ANOMALY":259.032,"EPHEMERIS_TYPE":0,"CLASSIFICATION_TYPE":"U","NORAD_CAT_ID":49309,"ELEMENT_SET_NO":999,"REV_AT_EPOCH":19435,"BSTAR":0.0083396653,"MEAN_MOTION_DOT":3.106e-5,"MEAN_MOTION_DDOT":0},{"OBJECT_NAME":"ONEWEB-0384","OBJECT_ID":"2021-090AH","EPOCH":"2025-10-07T04:31:22.382400","MEAN_MOTION":13.20793998,"ECCENTRICITY":0.00016139,"INCLINATION":87.9252,"RA_OF_ASC_NODE":324.9142,"ARG_OF_PERICENTER":82.511,"MEAN_ANOMALY":277.6207,"EPHEMERIS_TYPE":0,"CLASSIFICATION_TYPE":"U","NORAD_CAT_ID":49310,"ELEMENT_SET_NO":999,"REV_AT_EPOCH":19643,"BSTAR":4.2657436e-5,"MEAN_MOTION_DOT":3.0e-7,"MEAN_MOTION_DDOT":0},{"OBJECT_NAME":"ONEWEB-0385","OBJECT_ID":"2021-090AJ","EPOCH":"2025-10-07T04:27:40.732704","MEAN_MOTION":13.2077142,"ECCENTRICITY":0.00018219,"INCLINATION":87.9229,"RA_OF_ASC_NODE":324.8965,"ARG_OF_PERICENTER":92.1119,"MEAN_ANOMALY":268.0223,"EPHEMERIS_TYPE":0,"CLASSIFICATION_TYPE":"U","NORAD_CAT_ID":49311,"ELEMENT_SET_NO":999,"REV_AT_EPOCH":19640,"BSTAR":0.00012604553,"MEAN_MOTION_DOT":6.4e-7,"MEAN_MOTION_DDOT":0},{"OBJECT_NAME":"ONEWEB-0386","OBJECT_ID":"2021-090AK","EPOCH":"2025-10-07T04:52:38.719488","MEAN_MOTION":13.20773349,"ECCENTRICITY":0.00017258,"INCLINATION":87.9238,"RA_OF_ASC_NODE":324.8709,"ARG_OF_PERICENTER":89.6795,"MEAN_ANOMALY":270.4536,"EPHEMERIS_TYPE":0,"CLASSIFICATION_TYPE":"U","NORAD_CAT_ID":49312,"ELEMENT_SET_NO":999,"REV_AT_EPOCH":19642,"BSTAR":-6.0175652e-5,"MEAN_MOTION_DOT":-1.1e-7,"MEAN_MOTION_DDOT":0},{"OBJECT_NAME":"ONEWEB-0387","OBJECT_ID":"2021-090AL","EPOCH":"2025-10-07T04:29:55.457952","MEAN_MOTION":13.20772639,"ECCENTRICITY":0.00020562,"INCLINATION":87.923,"RA_OF_ASC_NODE":324.9256,"ARG_OF_PERICENTER":88.5091,"MEAN_ANOMALY":271.6277,"EPHEMERIS_TYPE":0,"CLASSIFICATION_TYPE":"U","NORAD_CAT_ID":49313,"ELEMENT_SET_NO":999,"REV_AT_EPOCH":19642,"BSTAR":-0.00016102613,"MEAN_MOTION_DOT":-5.2e-7,"MEAN_MOTION_DDOT":0},{"OBJECT_NAME":"ONEWEB-0388","OBJECT_ID":"2021-090AM","EPOCH":"2025-10-07T06:08:01.279968","MEAN_MOTION":13.19726407,"ECCENTRICITY":0.00017863,"INCLINATION":87.9271,"RA_OF_ASC_NODE":355.2924,"ARG_OF_PERICENTER":96.3195,"MEAN_ANOMALY":263.8142,"EPHEMERIS_TYPE":0,"CLASSIFICATION_TYPE":"U","NORAD_CAT_ID":49314,"ELEMENT_SET_NO":999,"REV_AT_EPOCH":19305,"BSTAR":7.2569894e-5,"MEAN_MOTION_DOT":4.2e-7,"MEAN_MOTION_DDOT":0},{"OBJECT_NAME":"ONEWEB-0389","OBJECT_ID":"2021-132A","EPOCH":"2025-10-07T07:57:01.843776","MEAN_MOTION":13.17648037,"ECCENTRICITY":0.00017647,"INCLINATION":87.909,"RA_OF_ASC_NODE":56.154,"ARG_OF_PERICENTER":84.7657,"MEAN_ANOMALY":275.3676,"EPHEMERIS_TYPE":0,"CLASSIFICATION_TYPE":"U","NORAD_CAT_ID":50469,"ELEMENT_SET_NO":999,"REV_AT_EPOCH":18478,"BSTAR":0.00012655673,"MEAN_MOTION_DOT":6.2e-7,"MEAN_MOTION_DDOT":0},{"OBJECT_NAME":"ONEWEB-0390","OBJECT_ID":"2021-132B","EPOCH":"2025-10-07T07:59:26.805696","MEAN_MOTION":13.17651459,"ECCENTRICITY":0.00019286,"INCLINATION":87.9088,"RA_OF_ASC_NODE":56.1595,"ARG_OF_PERICENTER":99.0353,"MEAN_ANOMALY":261.0997,"EPHEMERIS_TYPE":0,"CLASSIFICATION_TYPE":"U","NORAD_CAT_ID":50470,"ELEMENT_SET_NO":999,"REV_AT_EPOCH":18478,"BSTAR":0.0003386723,"MEAN_MOTION_DOT":1.44e-6,"MEAN_MOTION_DDOT":0},{"OBJECT_NAME":"ONEWEB-0391","OBJECT_ID":"2021-132C","EPOCH":"2025-10-07T08:01:54.434784","MEAN_MOTION":13.17649368,"ECCENTRICITY":0.00022849,"INCLINATION":87.9085,"RA_OF_ASC_NODE":56.1707,"ARG_OF_PERICENTER":78.8331,"MEAN_ANOMALY":281.3057,"EPHEMERIS_TYPE":0,"CLASSIFICATION_TYPE":"U","NORAD_CAT_ID":50471,"ELEMENT_SET_NO":999,"REV_AT_EPOCH":18478,"BSTAR":0.0002296633,"MEAN_MOTION_DOT":1.02e-6,"MEAN_MOTION_DDOT":0},{"OBJECT_NAME":"ONEWEB-0392","OBJECT_ID":"2021-132D","EPOCH":"2025-10-07T06:56:16.284768","MEAN_MOTION":13.17645941,"ECCENTRICITY":0.0001903,"INCLINATION":87.908,"RA_OF_ASC_NODE":56.1265,"ARG_OF_PERICENTER":85.9241,"MEAN_ANOMALY":274.2108,"EPHEMERIS_TYPE":0,"CLASSIFICATION_TYPE":"U","NORAD_CAT_ID":50472,"ELEMENT_SET_NO":999,"REV_AT_EPOCH":18481,"BSTAR":-0.0002418649,"MEAN_MOTION_DOT":-8.1e-7,"MEAN_MOTION_DDOT":0},{"OBJECT_NAME":"ONEWEB-0393","OBJECT_ID":"2021-132E","EPOCH":"2025-10-07T02:38:55.235328","MEAN_MOTION":13.17647739,"ECCENTRICITY":0.00017557,"INCLINATION":87.9091,"RA_OF_ASC_NODE":56.1825,"ARG_OF_PERICENTER":91.2718,"MEAN_ANOMALY":268.8615,"EPHEMERIS_TYPE":0,"CLASSIFICATION_TYPE":"U","NORAD_CAT_ID":50473,"ELEMENT_SET_NO":999,"REV_AT_EPOCH":18478,"BSTAR":-0.0001515783,"MEAN_MOTION_DOT":-4.6e-7,"MEAN_MOTION_DDOT":0},{"OBJECT_NAME":"ONEWEB-0394","OBJECT_ID":"2021-132F","EPOCH":"2025-10-07T06:39:22.455072","MEAN_MOTION":13.18686524,"ECCENTRICITY":0.00017368,"INCLINATION":87.9223,"RA_OF_ASC_NODE":25.6601,"ARG_OF_PERICENTER":94.7788,"MEAN_ANOMALY":265.3543,"EPHEMERIS_TYPE":0,"CLASSIFICATION_TYPE":"U","NORAD_CAT_ID":50474,"ELEMENT_SET_NO":999,"REV_AT_EPOCH":18826,"BSTAR":0.00027227413,"MEAN_MOTION_DOT":1.2e-6,"MEAN_MOTION_DDOT":0},{"OBJECT_NAME":"ONEWEB-0395","OBJECT_ID":"2021-132G","EPOCH":"2025-10-07T07:40:09.220224","MEAN_MOTION":13.1141766,"ECCENTRICITY":0.00019309,"INCLINATION":87.8799,"RA_OF_ASC_NODE":71.4426,"ARG_OF_PERICENTER":92.6224,"MEAN_ANOMALY":267.5125,"EPHEMERIS_TYPE":0,"CLASSIFICATION_TYPE":"U","NORAD_CAT_ID":50475,"ELEMENT_SET_NO":999,"REV_AT_EPOCH":18257,"BSTAR":0.00039987254,"MEAN_MOTION_DOT":1.54e-6,"MEAN_MOTION_DDOT":0},{"OBJECT_NAME":"ONEWEB-0396","OBJECT_ID":"2021-132H","EPOCH":"2025-10-07T06:29:51.958464","MEAN_MOTION":13.18686733,"ECCENTRICITY":0.00017852,"INCLINATION":87.9229,"RA_OF_ASC_NODE":25.6739,"ARG_OF_PERICENTER":96.5039,"MEAN_ANOMALY":263.6297,"EPHEMERIS_TYPE":0,"CLASSIFICATION_TYPE":"U","NORAD_CAT_ID":50476,"ELEMENT_SET_NO":999,"REV_AT_EPOCH":18830,"BSTAR":0.00023556111,"MEAN_MOTION_DOT":1.06e-6,"MEAN_MOTION_DDOT":0},{"OBJECT_NAME":"ONEWEB-0397","OBJECT_ID":"2021-132J","EPOCH":"2025-10-07T06:51:13.514112","MEAN_MOTION":13.18688331,"ECCENTRICITY":0.00016184,"INCLINATION":87.9228,"RA_OF_ASC_NODE":25.6717,"ARG_OF_PERICENTER":97.3272,"MEAN_ANOMALY":262.8044,"EPHEMERIS_TYPE":0,"CLASSIFICATION_TYPE":"U","NORAD_CAT_ID":50477,"ELEMENT_SET_NO":999,"REV_AT_EPOCH":18828,"BSTAR":9.0568998e-5,"MEAN_MOTION_DOT":4.9e-7,"MEAN_MOTION_DDOT":0},{"OBJECT_NAME":"ONEWEB-0398","OBJECT_ID":"2021-132K","EPOCH":"2025-10-07T03:13:59.983392","MEAN_MOTION":13.11413608,"ECCENTRICITY":0.00020286,"INCLINATION":87.8812,"RA_OF_ASC_NODE":71.4473,"ARG_OF_PERICENTER":98.7575,"MEAN_ANOMALY":261.3783,"EPHEMERIS_TYPE":0,"CLASSIFICATION_TYPE":"U","NORAD_CAT_ID":50478,"ELEMENT_SET_NO":999,"REV_AT_EPOCH":18244,"BSTAR":-0.001081133,"MEAN_MOTION_DOT":-3.7e-6,"MEAN_MOTION_DDOT":0},{"OBJECT_NAME":"ONEWEB-0399","OBJECT_ID":"2021-132L","EPOCH":"2025-10-07T02:54:30.015072","MEAN_MOTION":13.11414631,"ECCENTRICITY":0.00016758,"INCLINATION":87.8802,"RA_OF_ASC_NODE":71.4693,"ARG_OF_PERICENTER":75.8401,"MEAN_ANOMALY":284.2913,"EPHEMERIS_TYPE":0,"CLASSIFICATION_TYPE":"U","NORAD_CAT_ID":50479,"ELEMENT_SET_NO":999,"REV_AT_EPOCH":18243,"BSTAR":0.00025870352,"MEAN_MOTION_DOT":1.04e-6,"MEAN_MOTION_DDOT":0},{"OBJECT_NAME":"ONEWEB-0400","OBJECT_ID":"2021-132M","EPOCH":"2025-10-07T06:20:20.642784","MEAN_MOTION":13.18685887,"ECCENTRICITY":0.00019516,"INCLINATION":87.9224,"RA_OF_ASC_NODE":25.6657,"ARG_OF_PERICENTER":103.3567,"MEAN_ANOMALY":256.7783,"EPHEMERIS_TYPE":0,"CLASSIFICATION_TYPE":"U","NORAD_CAT_ID":50480,"ELEMENT_SET_NO":999,"REV_AT_EPOCH":18827,"BSTAR":-0.00077504053,"MEAN_MOTION_DOT":-2.93e-6,"MEAN_MOTION_DDOT":0},{"OBJECT_NAME":"ONEWEB-0401","OBJECT_ID":"2021-132N","EPOCH":"2025-10-07T07:24:28.745856","MEAN_MOTION":13.18684279,"ECCENTRICITY":0.0001582,"INCLINATION":87.9228,"RA_OF_ASC_NODE":25.6539,"ARG_OF_PERICENTER":102.0672,"MEAN_ANOMALY":258.0638,"EPHEMERIS_TYPE":0,"CLASSIFICATION_TYPE":"U","NORAD_CAT_ID":50481,"ELEMENT_SET_NO":999,"REV_AT_EPOCH":18828,"BSTAR":-0.00015526012,"MEAN_MOTION_DOT":-4.8e-7,"MEAN_MOTION_DDOT":0},{"OBJECT_NAME":"ONEWEB-0402","OBJECT_ID":"2021-132P","EPOCH":"2025-10-07T06:32:13.337376","MEAN_MOTION":13.18688616,"ECCENTRICITY":0.00012188,"INCLINATION":87.9227,"RA_OF_ASC_NODE":25.6542,"ARG_OF_PERICENTER":108.9807,"MEAN_ANOMALY":251.1458,"EPHEMERIS_TYPE":0,"CLASSIFICATION_TYPE":"U","NORAD_CAT_ID":50482,"ELEMENT_SET_NO":999,"REV_AT_EPOCH":18830,"BSTAR":0.00017369369,"MEAN_MOTION_DOT":8.1e-7,"MEAN_MOTION_DDOT":0}]
